#aV2023  4 27  0  0  0.00000000     288 DD+AD WGS84 FIT  NGA
## 2259 345600.00000000   300.00000000 60061 0.0000000000000
+   32     1  2  3  4  5  6  7  8  9 10 11 12 13 14 15 16 17
+         18 19 20 21 22 23 24 25 26 27 28 29 30 31 32  0  0
+          0  0  0  0  0  0  0  0  0  0  0  0  0  0  0  0  0
+          0  0  0  0  0  0  0  0  0  0  0  0  0  0  0  0  0
+          0  0  0  0  0  0  0  0  0  0  0  0  0  0  0  0  0
++         2  2  2  2  2  2  2  2  2  2  2  2  2  2  2  2  2
++         2  2  2  2  2  2  2  2  2  2  2  2  2  2  2  0  0
++         0  0  0  0  0  0  0  0  0  0  0  0  0  0  0  0  0
++         0  0  0  0  0  0  0  0  0  0  0  0  0  0  0  0  0
++         0  0  0  0  0  0  0  0  0  0  0  0  0  0  0  0  0
%c cc cc ccc ccc cccc cccc cccc cccc ccccc ccccc ccccc ccccc
%c cc cc ccc ccc cccc cccc cccc cccc ccccc ccccc ccccc ccccc
%f  0.0000000  0.000000000  0.00000000000  0.000000000000000
%f  0.0000000  0.000000000  0.00000000000  0.000000000000000
%i    0    0    0    0      0      0      0      0         0
%i    0    0    0    0      0      0      0      0         0
/*      NGA, ST. LOUIS,MO.                                  
/*   EPHEMERIS COMPUTED FROM 2 DAYS OF DATA                 
/*   EPOCHA v8 SMOOTHER                                     
/*   G2139 IERS2010 SATIGS SATAPC                           
*  2023  4 27 23  5  0.00000000
P  1   7683.320611  13665.707014 -21827.410825    189.676463                    
V  1 -26649.704892   2736.446712  -7442.231882     -0.031008                    
P  2 -25688.211662     45.140991   7039.655448   -601.788962                    
V  2   7609.659693  -4026.560366  30337.968342      0.037791                    
P  3  12255.081017  23000.882509  -5576.051257   -318.535141                    
V  3  -5737.951813  -4319.329560 -31023.854019      0.098717                    
P  4   3227.997711  20294.494397  16777.645275     27.472667                    
V  4 -10873.732107  18431.427221 -20326.535797      0.094529                    
P  5    563.657976 -19215.089500  18102.903310   -125.061296                    
V  5  15935.220973  17167.804821  17676.102290     -0.014499                    
P  6  25746.135494  -5367.816045   4141.481422    587.857622                    
V  6   5306.435671   1254.304018 -31740.878166      0.005775                    
P  7  21427.976724   7989.186921  14363.165798    191.468608                    
V  7 -16998.431883   3764.970580  23545.769466     -0.088652                    
P  8  -5196.145807  25007.079052  -6563.001710   -119.813755                    
V  8  -5977.364835   6568.809473  30469.575607     -0.018542                    
P  9  11528.540537  11149.336511  21093.551847   -170.887363                    
V  9 -10918.984576  24676.109750  -7093.102024      0.081296                    
P 10 -18638.573119  -4427.984403 -18352.524867    -34.641000                    
V 10 -13075.145800 -19573.657485  17530.155578     -0.015736                    
P 11  16826.913529 -12374.584087  16395.109570   -177.202161                    
V 11  20874.404671    537.071780 -21062.708880     -0.131689                    
P 12  -8688.693268 -23955.410666  -7925.669071   -369.218729                    
V 12   7160.685332   6894.158870 -29659.113044     -0.046548                    
P 13  13104.437980 -22949.634247  -1224.376384    512.022898                    
V 13   3019.725615    268.960212  32029.762693      0.054686                    
P 14  19464.280430   7293.841894 -16607.496429     38.624925                    
V 14  10344.569886  18472.762304  20081.087125      0.121681                    
P 15   1520.420530 -25479.368429  -7281.389634     34.519211                    
V 15   5876.514163  -7453.218131  29401.214160      0.034324                    
P 16  -5488.654114  16786.808583  19384.059342   -505.575292                    
V 16 -14475.444679 -20938.674021  14260.380905      0.029753                    
P 17  17081.745112  -4293.246747 -19487.649737    712.546215                    
V 17 -10724.921180  23280.712324 -14119.702663      0.016689                    
P 18 -23525.172767  -5480.195743  11214.832495   -242.858958                    
V 18  13927.619654  -3251.258743  27478.774755     -0.162803                    
P 19  18473.182293 -12253.776289 -14634.004879    309.448501                    
V 19  -7393.246990  16830.472562 -24081.375305      0.050982                    
P 20   8394.295469 -13305.719326  21452.048573    436.631826                    
V 20  19742.483110  18686.485331   3677.442625     -0.021051                    
P 21  -1334.809685  15236.375249 -21056.580446    154.068545                    
V 21 -27820.791467   4597.830189   5792.490364     -0.001322                    
P 22 -17583.662967  15923.534413 -11326.387932    471.785834                    
V 22   4902.249345 -14549.478857 -27160.370497      0.066566                    
P 23 -19920.873348 -14798.211310  -9666.421819     19.918109                    
V 23  -5903.963217 -10893.206919  28681.788131      0.028035                    
P 24  -3586.046357 -15555.659339 -21585.519849   -168.159213                    
V 24  26189.190758  -5118.395703   -252.152669     -0.142845                    
P 25 -17055.574542 -20440.224120   1825.568970    438.812488                    
V 25    643.539916  -3843.475876 -31307.389799      0.027930                    
P 26 -14754.691141   6587.075449  21001.180846    241.402300                    
V 26 -17074.207155 -20917.732403  -5065.805910     -0.003528                    
P 27 -12756.027710  22664.096909   3895.313475     49.420053                    
V 27   -583.425038  -6042.469496  31664.282276     -0.082940                    
P 28 -25967.608229   5199.221469   1963.413326     71.361108                    
V 28  -2901.686140  -2389.314234 -31651.167916      0.050285                    
P 29  -7702.982290 -14966.022714  20469.757587   -597.281553                    
V 29  13040.571616 -22617.532727 -11679.009282     -0.014829                    
P 30  26446.912410    118.397120   3802.238186   -520.193093                    
V 30  -4316.929037   3770.993072  30528.142101      0.019932                    
P 31 -22789.962415   9355.841836  10323.813598   -214.928233                    
V 31 -13376.861386  -1175.718180 -27558.673862     -0.008284                    
P 32 -17280.269542   7447.244417 -18487.757443   -462.681554                    
V 32   7886.948829 -22642.478649 -16528.657881     -0.096870                    
EOF
